{
    "links": {
        "self": "http://www.neowsapp.com/rest/v1/neo/3826650?api_key=iIulBulltgU6a56xZRHN4H3l9WmuAYTsLGpBGhQ2"
    },
    "id": "3826650",
    "neo_reference_id": "3826650",
    "name": "(2018 PE9)",
    "designation": "2018 PE9",
    "nasa_jpl_url": "http://ssd.jpl.nasa.gov/sbdb.cgi?sstr=3826650",
    "absolute_magnitude_h": 24.1,
    "estimated_diameter": {
        "kilometers": {
            "estimated_diameter_min": 0.040230458,
            "estimated_diameter_max": 0.0899580388
        },
        "meters": {
            "estimated_diameter_min": 40.2304579834,
            "estimated_diameter_max": 89.9580388169
        },
        "miles": {
            "estimated_diameter_min": 0.0249980399,
            "estimated_diameter_max": 0.0558973165
        },
        "feet": {
            "estimated_diameter_min": 131.9896957704,
            "estimated_diameter_max": 295.1379320721
        }
    },
    "is_potentially_hazardous_asteroid": false,
    "close_approach_data": [
        {
            "close_approach_date": "2006-05-11",
            "close_approach_date_full": "2006-May-11 02:15",
            "epoch_date_close_approach": 1147313700000,
            "relative_velocity": {
                "kilometers_per_second": "5.9050417603",
                "kilometers_per_hour": "21258.1503369599",
                "miles_per_hour": "13208.9879135405"
            },
            "miss_distance": {
                "astronomical": "0.0824549969",
                "lunar": "32.0749937941",
                "kilometers": "12335091.907096603",
                "miles": "7664670.6955670014"
            },
            "orbiting_body": "Mars"
        },
        {
            "close_approach_date": "2008-03-18",
            "close_approach_date_full": "2008-Mar-18 08:04",
            "epoch_date_close_approach": 1205827440000,
            "relative_velocity": {
                "kilometers_per_second": "8.7091841977",
                "kilometers_per_hour": "31353.0631116966",
                "miles_per_hour": "19481.5741318206"
            },
            "miss_distance": {
                "astronomical": "0.4996473949",
                "lunar": "194.3628366161",
                "kilometers": "74746186.028088863",
                "miles": "46445126.3087297894"
            },
            "orbiting_body": "Earth"
        },
        {
            "close_approach_date": "2018-08-13",
            "close_approach_date_full": "2018-Aug-13 16:02",
            "epoch_date_close_approach": 1534176120000,
            "relative_velocity": {
                "kilometers_per_second": "7.1457406974",
                "kilometers_per_hour": "25724.6665104964",
                "miles_per_hour": "15984.3073659249"
            },
            "miss_distance": {
                "astronomical": "0.1825266447",
                "lunar": "71.0028647883",
                "kilometers": "27305597.265366789",
                "miles": "16966911.3745641282"
            },
            "orbiting_body": "Earth"
        },
        {
            "close_approach_date": "2023-10-01",
            "close_approach_date_full": "2023-Oct-01 02:55",
            "epoch_date_close_approach": 1696128900000,
            "relative_velocity": {
                "kilometers_per_second": "6.2339830112",
                "kilometers_per_hour": "22442.3388403389",
                "miles_per_hour": "13944.796597765"
            },
            "miss_distance": {
                "astronomical": "0.4424826916",
                "lunar": "172.1257670324",
                "kilometers": "66194468.175226892",
                "miles": "41131335.2387274296"
            },
            "orbiting_body": "Earth"
        }
    ],
    "orbital_data": {
        "orbit_id": "6",
        "orbit_determination_date": "2018-09-08 07:04:01",
        "first_observation_date": "2018-08-07",
        "last_observation_date": "2018-09-05",
        "data_arc_in_days": 29,
        "observations_used": 28,
        "orbit_uncertainty": "7",
        "minimum_orbit_intersection": ".179385",
        "jupiter_tisserand_invariant": "4.732",
        "epoch_osculation": "2459000.5",
        "eccentricity": ".157080451719094",
        "semi_major_axis": "1.390856436261414",
        "inclination": "13.89041034709226",
        "ascending_node_longitude": "328.9806543574025",
        "orbital_period": "599.131127559532",
        "perihelion_distance": "1.172380078977062",
        "perihelion_argument": "325.9246444627407",
        "aphelion_distance": "1.609332793545766",
        "perihelion_time": "2458910.593942441634",
        "mean_anomaly": "54.02186471741233",
        "mean_motion": ".6008701324973789",
        "equinox": "J2000",
        "orbit_class": {
            "orbit_class_type": "AMO",
            "orbit_class_description": "Near-Earth asteroid orbits similar to that of 1221 Amor",
            "orbit_class_range": "1.017 AU < q (perihelion) < 1.3 AU"
        }
    },
    "is_sentry_object": false
}